MALLIGYONG-1            
1 58400U 23179A   24220.08800306  .00008177  00000+0  36294-3 0  9993
2 58400  97.3961 106.0751 0002828  59.3445 300.8070 15.21816799 39463
